{
    "type": "FeatureCollection",
    "name": "tiles-500-x",
    "crs": {
        "type": "name",
        "properties": {
            "name": "urn:ogc:def:crs:EPSG::3979"
        }
    },
    "features": [
        {
            "type": "Feature",
            "properties": {
                "id": "1_3"
            },
            "geometry": {
                "type": "Polygon",
                "coordinates": [
                    [
                        [
                            -2000000.0,
                            0.0
                        ],
                        [
                            -2000000.0,
                            500000.0
                        ],
                        [
                            -2500000.0,
                            500000.0
                        ],
                        [
                            -2500000.0,
                            0.0
                        ],
                        [
                            -2000000.0,
                            0.0
                        ]
                    ]
                ]
            }
        },
        {
            "type": "Feature",
            "properties": {
                "id": "1_4"
            },
            "geometry": {
                "type": "Polygon",
                "coordinates": [
                    [
                        [
                            -2000000.0,
                            500000.0
                        ],
                        [
                            -2000000.0,
                            1000000.0
                        ],
                        [
                            -2500000.0,
                            1000000.0
                        ],
                        [
                            -2500000.0,
                            500000.0
                        ],
                        [
                            -2000000.0,
                            500000.0
                        ]
                    ]
                ]
            }
        },
        {
            "type": "Feature",
            "properties": {
                "id": "1_5"
            },
            "geometry": {
                "type": "Polygon",
                "coordinates": [
                    [
                        [
                            -2000000.0,
                            1000000.0
                        ],
                        [
                            -2000000.0,
                            1500000.0
                        ],
                        [
                            -2500000.0,
                            1500000.0
                        ],
                        [
                            -2500000.0,
                            1000000.0
                        ],
                        [
                            -2000000.0,
                            1000000.0
                        ]
                    ]
                ]
            }
        },
        {
            "type": "Feature",
            "properties": {
                "id": "1_6"
            },
            "geometry": {
                "type": "Polygon",
                "coordinates": [
                    [
                        [
                            -2000000.0,
                            1500000.0
                        ],
                        [
                            -2000000.0,
                            2000000.0
                        ],
                        [
                            -2500000.0,
                            2000000.0
                        ],
                        [
                            -2500000.0,
                            1500000.0
                        ],
                        [
                            -2000000.0,
                            1500000.0
                        ]
                    ]
                ]
            }
        },
        {
            "type": "Feature",
            "properties": {
                "id": "1_7"
            },
            "geometry": {
                "type": "Polygon",
                "coordinates": [
                    [
                        [
                            -2000000.0,
                            2000000.0
                        ],
                        [
                            -2000000.0,
                            2500000.0
                        ],
                        [
                            -2500000.0,
                            2500000.0
                        ],
                        [
                            -2500000.0,
                            2000000.0
                        ],
                        [
                            -2000000.0,
                            2000000.0
                        ]
                    ]
                ]
            }
        },
        {
            "type": "Feature",
            "properties": {
                "id": "2_3"
            },
            "geometry": {
                "type": "Polygon",
                "coordinates": [
                    [
                        [
                            -1500000.0,
                            0.0
                        ],
                        [
                            -1500000.0,
                            500000.0
                        ],
                        [
                            -2000000.0,
                            500000.0
                        ],
                        [
                            -2000000.0,
                            0.0
                        ],
                        [
                            -1500000.0,
                            0.0
                        ]
                    ]
                ]
            }
        },
        {
            "type": "Feature",
            "properties": {
                "id": "2_4"
            },
            "geometry": {
                "type": "Polygon",
                "coordinates": [
                    [
                        [
                            -1500000.0,
                            500000.0
                        ],
                        [
                            -1500000.0,
                            1000000.0
                        ],
                        [
                            -2000000.0,
                            1000000.0
                        ],
                        [
                            -2000000.0,
                            500000.0
                        ],
                        [
                            -1500000.0,
                            500000.0
                        ]
                    ]
                ]
            }
        },
        {
            "type": "Feature",
            "properties": {
                "id": "2_5"
            },
            "geometry": {
                "type": "Polygon",
                "coordinates": [
                    [
                        [
                            -1500000.0,
                            1000000.0
                        ],
                        [
                            -1500000.0,
                            1500000.0
                        ],
                        [
                            -2000000.0,
                            1500000.0
                        ],
                        [
                            -2000000.0,
                            1000000.0
                        ],
                        [
                            -1500000.0,
                            1000000.0
                        ]
                    ]
                ]
            }
        },
        {
            "type": "Feature",
            "properties": {
                "id": "2_6"
            },
            "geometry": {
                "type": "Polygon",
                "coordinates": [
                    [
                        [
                            -1500000.0,
                            1500000.0
                        ],
                        [
                            -1500000.0,
                            2000000.0
                        ],
                        [
                            -2000000.0,
                            2000000.0
                        ],
                        [
                            -2000000.0,
                            1500000.0
                        ],
                        [
                            -1500000.0,
                            1500000.0
                        ]
                    ]
                ]
            }
        },
        {
            "type": "Feature",
            "properties": {
                "id": "2_7"
            },
            "geometry": {
                "type": "Polygon",
                "coordinates": [
                    [
                        [
                            -1500000.0,
                            2000000.0
                        ],
                        [
                            -1500000.0,
                            2500000.0
                        ],
                        [
                            -2000000.0,
                            2500000.0
                        ],
                        [
                            -2000000.0,
                            2000000.0
                        ],
                        [
                            -1500000.0,
                            2000000.0
                        ]
                    ]
                ]
            }
        },
        {
            "type": "Feature",
            "properties": {
                "id": "2_8"
            },
            "geometry": {
                "type": "Polygon",
                "coordinates": [
                    [
                        [
                            -1500000.0,
                            2500000.0
                        ],
                        [
                            -1500000.0,
                            3000000.0
                        ],
                        [
                            -2000000.0,
                            3000000.0
                        ],
                        [
                            -2000000.0,
                            2500000.0
                        ],
                        [
                            -1500000.0,
                            2500000.0
                        ]
                    ]
                ]
            }
        },
        {
            "type": "Feature",
            "properties": {
                "id": "3_3"
            },
            "geometry": {
                "type": "Polygon",
                "coordinates": [
                    [
                        [
                            -1000000.0,
                            0.0
                        ],
                        [
                            -1000000.0,
                            500000.0
                        ],
                        [
                            -1500000.0,
                            500000.0
                        ],
                        [
                            -1500000.0,
                            0.0
                        ],
                        [
                            -1000000.0,
                            0.0
                        ]
                    ]
                ]
            }
        },
        {
            "type": "Feature",
            "properties": {
                "id": "3_4"
            },
            "geometry": {
                "type": "Polygon",
                "coordinates": [
                    [
                        [
                            -1000000.0,
                            500000.0
                        ],
                        [
                            -1000000.0,
                            1000000.0
                        ],
                        [
                            -1500000.0,
                            1000000.0
                        ],
                        [
                            -1500000.0,
                            500000.0
                        ],
                        [
                            -1000000.0,
                            500000.0
                        ]
                    ]
                ]
            }
        },
        {
            "type": "Feature",
            "properties": {
                "id": "3_5"
            },
            "geometry": {
                "type": "Polygon",
                "coordinates": [
                    [
                        [
                            -1000000.0,
                            1000000.0
                        ],
                        [
                            -1000000.0,
                            1500000.0
                        ],
                        [
                            -1500000.0,
                            1500000.0
                        ],
                        [
                            -1500000.0,
                            1000000.0
                        ],
                        [
                            -1000000.0,
                            1000000.0
                        ]
                    ]
                ]
            }
        },
        {
            "type": "Feature",
            "properties": {
                "id": "3_6"
            },
            "geometry": {
                "type": "Polygon",
                "coordinates": [
                    [
                        [
                            -1000000.0,
                            1500000.0
                        ],
                        [
                            -1000000.0,
                            2000000.0
                        ],
                        [
                            -1500000.0,
                            2000000.0
                        ],
                        [
                            -1500000.0,
                            1500000.0
                        ],
                        [
                            -1000000.0,
                            1500000.0
                        ]
                    ]
                ]
            }
        },
        {
            "type": "Feature",
            "properties": {
                "id": "3_7"
            },
            "geometry": {
                "type": "Polygon",
                "coordinates": [
                    [
                        [
                            -1000000.0,
                            2000000.0
                        ],
                        [
                            -1000000.0,
                            2500000.0
                        ],
                        [
                            -1500000.0,
                            2500000.0
                        ],
                        [
                            -1500000.0,
                            2000000.0
                        ],
                        [
                            -1000000.0,
                            2000000.0
                        ]
                    ]
                ]
            }
        },
        {
            "type": "Feature",
            "properties": {
                "id": "3_8"
            },
            "geometry": {
                "type": "Polygon",
                "coordinates": [
                    [
                        [
                            -1000000.0,
                            2500000.0
                        ],
                        [
                            -1000000.0,
                            3000000.0
                        ],
                        [
                            -1500000.0,
                            3000000.0
                        ],
                        [
                            -1500000.0,
                            2500000.0
                        ],
                        [
                            -1000000.0,
                            2500000.0
                        ]
                    ]
                ]
            }
        },
        {
            "type": "Feature",
            "properties": {
                "id": "4_3"
            },
            "geometry": {
                "type": "Polygon",
                "coordinates": [
                    [
                        [
                            -500000.0,
                            0.0
                        ],
                        [
                            -500000.0,
                            500000.0
                        ],
                        [
                            -1000000.0,
                            500000.0
                        ],
                        [
                            -1000000.0,
                            0.0
                        ],
                        [
                            -500000.0,
                            0.0
                        ]
                    ]
                ]
            }
        },
        {
            "type": "Feature",
            "properties": {
                "id": "4_4"
            },
            "geometry": {
                "type": "Polygon",
                "coordinates": [
                    [
                        [
                            -500000.0,
                            500000.0
                        ],
                        [
                            -500000.0,
                            1000000.0
                        ],
                        [
                            -1000000.0,
                            1000000.0
                        ],
                        [
                            -1000000.0,
                            500000.0
                        ],
                        [
                            -500000.0,
                            500000.0
                        ]
                    ]
                ]
            }
        },
        {
            "type": "Feature",
            "properties": {
                "id": "4_5"
            },
            "geometry": {
                "type": "Polygon",
                "coordinates": [
                    [
                        [
                            -500000.0,
                            1000000.0
                        ],
                        [
                            -500000.0,
                            1500000.0
                        ],
                        [
                            -1000000.0,
                            1500000.0
                        ],
                        [
                            -1000000.0,
                            1000000.0
                        ],
                        [
                            -500000.0,
                            1000000.0
                        ]
                    ]
                ]
            }
        },
        {
            "type": "Feature",
            "properties": {
                "id": "4_6"
            },
            "geometry": {
                "type": "Polygon",
                "coordinates": [
                    [
                        [
                            -500000.0,
                            1500000.0
                        ],
                        [
                            -500000.0,
                            2000000.0
                        ],
                        [
                            -1000000.0,
                            2000000.0
                        ],
                        [
                            -1000000.0,
                            1500000.0
                        ],
                        [
                            -500000.0,
                            1500000.0
                        ]
                    ]
                ]
            }
        },
        {
            "type": "Feature",
            "properties": {
                "id": "4_7"
            },
            "geometry": {
                "type": "Polygon",
                "coordinates": [
                    [
                        [
                            -500000.0,
                            2000000.0
                        ],
                        [
                            -500000.0,
                            2500000.0
                        ],
                        [
                            -1000000.0,
                            2500000.0
                        ],
                        [
                            -1000000.0,
                            2000000.0
                        ],
                        [
                            -500000.0,
                            2000000.0
                        ]
                    ]
                ]
            }
        },
        {
            "type": "Feature",
            "properties": {
                "id": "4_8"
            },
            "geometry": {
                "type": "Polygon",
                "coordinates": [
                    [
                        [
                            -500000.0,
                            2500000.0
                        ],
                        [
                            -500000.0,
                            3000000.0
                        ],
                        [
                            -1000000.0,
                            3000000.0
                        ],
                        [
                            -1000000.0,
                            2500000.0
                        ],
                        [
                            -500000.0,
                            2500000.0
                        ]
                    ]
                ]
            }
        },
        {
            "type": "Feature",
            "properties": {
                "id": "4_9"
            },
            "geometry": {
                "type": "Polygon",
                "coordinates": [
                    [
                        [
                            -500000.0,
                            3000000.0
                        ],
                        [
                            -500000.0,
                            3500000.0
                        ],
                        [
                            -1000000.0,
                            3500000.0
                        ],
                        [
                            -1000000.0,
                            3000000.0
                        ],
                        [
                            -500000.0,
                            3000000.0
                        ]
                    ]
                ]
            }
        },
        {
            "type": "Feature",
            "properties": {
                "id": "5_3"
            },
            "geometry": {
                "type": "Polygon",
                "coordinates": [
                    [
                        [
                            0.0,
                            -50000.0
                        ],
                        [
                            0.0,
                            500000.0
                        ],
                        [
                            -500000.0,
                            500000.0
                        ],
                        [
                            -500000.0,
                            -50000.0
                        ],
                        [
                            0.0,
                            -50000.0
                        ]
                    ]
                ]
            }
        },
        {
            "type": "Feature",
            "properties": {
                "id": "5_4"
            },
            "geometry": {
                "type": "Polygon",
                "coordinates": [
                    [
                        [
                            0.0,
                            500000.0
                        ],
                        [
                            0.0,
                            1000000.0
                        ],
                        [
                            -500000.0,
                            1000000.0
                        ],
                        [
                            -500000.0,
                            500000.0
                        ],
                        [
                            0.0,
                            500000.0
                        ]
                    ]
                ]
            }
        },
        {
            "type": "Feature",
            "properties": {
                "id": "5_5"
            },
            "geometry": {
                "type": "Polygon",
                "coordinates": [
                    [
                        [
                            0.0,
                            1000000.0
                        ],
                        [
                            0.0,
                            1500000.0
                        ],
                        [
                            -500000.0,
                            1500000.0
                        ],
                        [
                            -500000.0,
                            1000000.0
                        ],
                        [
                            0.0,
                            1000000.0
                        ]
                    ]
                ]
            }
        },
        {
            "type": "Feature",
            "properties": {
                "id": "5_6"
            },
            "geometry": {
                "type": "Polygon",
                "coordinates": [
                    [
                        [
                            0.0,
                            1500000.0
                        ],
                        [
                            0.0,
                            2000000.0
                        ],
                        [
                            -500000.0,
                            2000000.0
                        ],
                        [
                            -500000.0,
                            1500000.0
                        ],
                        [
                            0.0,
                            1500000.0
                        ]
                    ]
                ]
            }
        },
        {
            "type": "Feature",
            "properties": {
                "id": "5_7"
            },
            "geometry": {
                "type": "Polygon",
                "coordinates": [
                    [
                        [
                            0.0,
                            2000000.0
                        ],
                        [
                            0.0,
                            2500000.0
                        ],
                        [
                            -500000.0,
                            2500000.0
                        ],
                        [
                            -500000.0,
                            2000000.0
                        ],
                        [
                            0.0,
                            2000000.0
                        ]
                    ]
                ]
            }
        },
        {
            "type": "Feature",
            "properties": {
                "id": "5_8"
            },
            "geometry": {
                "type": "Polygon",
                "coordinates": [
                    [
                        [
                            0.0,
                            2500000.0
                        ],
                        [
                            0.0,
                            3000000.0
                        ],
                        [
                            -500000.0,
                            3000000.0
                        ],
                        [
                            -500000.0,
                            2500000.0
                        ],
                        [
                            0.0,
                            2500000.0
                        ]
                    ]
                ]
            }
        },
        {
            "type": "Feature",
            "properties": {
                "id": "5_9"
            },
            "geometry": {
                "type": "Polygon",
                "coordinates": [
                    [
                        [
                            0.0,
                            3000000.0
                        ],
                        [
                            0.0,
                            3500000.0
                        ],
                        [
                            -500000.0,
                            3500000.0
                        ],
                        [
                            -500000.0,
                            3000000.0
                        ],
                        [
                            0.0,
                            3000000.0
                        ]
                    ]
                ]
            }
        },
        {
            "type": "Feature",
            "properties": {
                "id": "6_2"
            },
            "geometry": {
                "type": "Polygon",
                "coordinates": [
                    [
                        [
                            500000.0,
                            -500000.0
                        ],
                        [
                            500000.0,
                            0.0
                        ],
                        [
                            0.0,
                            0.0
                        ],
                        [
                            0.0,
                            -500000.0
                        ],
                        [
                            500000.0,
                            -500000.0
                        ]
                    ]
                ]
            }
        },
        {
            "type": "Feature",
            "properties": {
                "id": "6_3"
            },
            "geometry": {
                "type": "Polygon",
                "coordinates": [
                    [
                        [
                            500000.0,
                            0.0
                        ],
                        [
                            500000.0,
                            500000.0
                        ],
                        [
                            0.0,
                            500000.0
                        ],
                        [
                            0.0,
                            0.0
                        ],
                        [
                            500000.0,
                            0.0
                        ]
                    ]
                ]
            }
        },
        {
            "type": "Feature",
            "properties": {
                "id": "6_4"
            },
            "geometry": {
                "type": "Polygon",
                "coordinates": [
                    [
                        [
                            500000.0,
                            500000.0
                        ],
                        [
                            500000.0,
                            1000000.0
                        ],
                        [
                            0.0,
                            1000000.0
                        ],
                        [
                            0.0,
                            500000.0
                        ],
                        [
                            500000.0,
                            500000.0
                        ]
                    ]
                ]
            }
        },
        {
            "type": "Feature",
            "properties": {
                "id": "6_5"
            },
            "geometry": {
                "type": "Polygon",
                "coordinates": [
                    [
                        [
                            500000.0,
                            1000000.0
                        ],
                        [
                            500000.0,
                            1500000.0
                        ],
                        [
                            0.0,
                            1500000.0
                        ],
                        [
                            0.0,
                            1000000.0
                        ],
                        [
                            500000.0,
                            1000000.0
                        ]
                    ]
                ]
            }
        },
        {
            "type": "Feature",
            "properties": {
                "id": "6_6"
            },
            "geometry": {
                "type": "Polygon",
                "coordinates": [
                    [
                        [
                            500000.0,
                            1500000.0
                        ],
                        [
                            500000.0,
                            2000000.0
                        ],
                        [
                            0.0,
                            2000000.0
                        ],
                        [
                            0.0,
                            1500000.0
                        ],
                        [
                            500000.0,
                            1500000.0
                        ]
                    ]
                ]
            }
        },
        {
            "type": "Feature",
            "properties": {
                "id": "6_7"
            },
            "geometry": {
                "type": "Polygon",
                "coordinates": [
                    [
                        [
                            500000.0,
                            2000000.0
                        ],
                        [
                            500000.0,
                            2500000.0
                        ],
                        [
                            0.0,
                            2500000.0
                        ],
                        [
                            0.0,
                            2000000.0
                        ],
                        [
                            500000.0,
                            2000000.0
                        ]
                    ]
                ]
            }
        },
        {
            "type": "Feature",
            "properties": {
                "id": "6_8"
            },
            "geometry": {
                "type": "Polygon",
                "coordinates": [
                    [
                        [
                            500000.0,
                            2500000.0
                        ],
                        [
                            500000.0,
                            3000000.0
                        ],
                        [
                            0.0,
                            3000000.0
                        ],
                        [
                            0.0,
                            2500000.0
                        ],
                        [
                            500000.0,
                            2500000.0
                        ]
                    ]
                ]
            }
        },
        {
            "type": "Feature",
            "properties": {
                "id": "6_9"
            },
            "geometry": {
                "type": "Polygon",
                "coordinates": [
                    [
                        [
                            500000.0,
                            3000000.0
                        ],
                        [
                            500000.0,
                            3500000.0
                        ],
                        [
                            0.0,
                            3500000.0
                        ],
                        [
                            0.0,
                            3000000.0
                        ],
                        [
                            500000.0,
                            3000000.0
                        ]
                    ]
                ]
            }
        },
        {
            "type": "Feature",
            "properties": {
                "id": "6_10"
            },
            "geometry": {
                "type": "Polygon",
                "coordinates": [
                    [
                        [
                            550000.0,
                            3500000.0
                        ],
                        [
                            550000.0,
                            4000000.0
                        ],
                        [
                            -50000.0,
                            4000000.0
                        ],
                        [
                            -50000.0,
                            3500000.0
                        ],
                        [
                            550000.0,
                            3500000.0
                        ]
                    ]
                ]
            }
        },
        {
            "type": "Feature",
            "properties": {
                "id": "7_2"
            },
            "geometry": {
                "type": "Polygon",
                "coordinates": [
                    [
                        [
                            1000000.0,
                            -500000.0
                        ],
                        [
                            1000000.0,
                            0.0
                        ],
                        [
                            500000.0,
                            0.0
                        ],
                        [
                            500000.0,
                            -500000.0
                        ],
                        [
                            1000000.0,
                            -500000.0
                        ]
                    ]
                ]
            }
        },
        {
            "type": "Feature",
            "properties": {
                "id": "7_3"
            },
            "geometry": {
                "type": "Polygon",
                "coordinates": [
                    [
                        [
                            1000000.0,
                            0.0
                        ],
                        [
                            1000000.0,
                            500000.0
                        ],
                        [
                            500000.0,
                            500000.0
                        ],
                        [
                            500000.0,
                            0.0
                        ],
                        [
                            1000000.0,
                            0.0
                        ]
                    ]
                ]
            }
        },
        {
            "type": "Feature",
            "properties": {
                "id": "7_4"
            },
            "geometry": {
                "type": "Polygon",
                "coordinates": [
                    [
                        [
                            1000000.0,
                            500000.0
                        ],
                        [
                            1000000.0,
                            1000000.0
                        ],
                        [
                            500000.0,
                            1000000.0
                        ],
                        [
                            500000.0,
                            500000.0
                        ],
                        [
                            1000000.0,
                            500000.0
                        ]
                    ]
                ]
            }
        },
        {
            "type": "Feature",
            "properties": {
                "id": "7_5"
            },
            "geometry": {
                "type": "Polygon",
                "coordinates": [
                    [
                        [
                            1000000.0,
                            1000000.0
                        ],
                        [
                            1000000.0,
                            1500000.0
                        ],
                        [
                            500000.0,
                            1500000.0
                        ],
                        [
                            500000.0,
                            1000000.0
                        ],
                        [
                            1000000.0,
                            1000000.0
                        ]
                    ]
                ]
            }
        },
        {
            "type": "Feature",
            "properties": {
                "id": "7_6"
            },
            "geometry": {
                "type": "Polygon",
                "coordinates": [
                    [
                        [
                            1000000.0,
                            1500000.0
                        ],
                        [
                            1000000.0,
                            2000000.0
                        ],
                        [
                            500000.0,
                            2000000.0
                        ],
                        [
                            500000.0,
                            1500000.0
                        ],
                        [
                            1000000.0,
                            1500000.0
                        ]
                    ]
                ]
            }
        },
        {
            "type": "Feature",
            "properties": {
                "id": "7_7"
            },
            "geometry": {
                "type": "Polygon",
                "coordinates": [
                    [
                        [
                            1000000.0,
                            2000000.0
                        ],
                        [
                            1000000.0,
                            2500000.0
                        ],
                        [
                            500000.0,
                            2500000.0
                        ],
                        [
                            500000.0,
                            2000000.0
                        ],
                        [
                            1000000.0,
                            2000000.0
                        ]
                    ]
                ]
            }
        },
        {
            "type": "Feature",
            "properties": {
                "id": "7_8"
            },
            "geometry": {
                "type": "Polygon",
                "coordinates": [
                    [
                        [
                            1050000.0,
                            2500000.0
                        ],
                        [
                            1050000.0,
                            3000000.0
                        ],
                        [
                            500000.0,
                            3000000.0
                        ],
                        [
                            500000.0,
                            2500000.0
                        ],
                        [
                            1050000.0,
                            2500000.0
                        ]
                    ]
                ]
            }
        },
        {
            "type": "Feature",
            "properties": {
                "id": "8_1"
            },
            "geometry": {
                "type": "Polygon",
                "coordinates": [
                    [
                        [
                            1500000.0,
                            -1000000.0
                        ],
                        [
                            1500000.0,
                            -500000.0
                        ],
                        [
                            1000000.0,
                            -500000.0
                        ],
                        [
                            1000000.0,
                            -1000000.0
                        ],
                        [
                            1500000.0,
                            -1000000.0
                        ]
                    ]
                ]
            }
        },
        {
            "type": "Feature",
            "properties": {
                "id": "8_2"
            },
            "geometry": {
                "type": "Polygon",
                "coordinates": [
                    [
                        [
                            1500000.0,
                            -500000.0
                        ],
                        [
                            1500000.0,
                            0.0
                        ],
                        [
                            1000000.0,
                            0.0
                        ],
                        [
                            1000000.0,
                            -500000.0
                        ],
                        [
                            1500000.0,
                            -500000.0
                        ]
                    ]
                ]
            }
        },
        {
            "type": "Feature",
            "properties": {
                "id": "8_3"
            },
            "geometry": {
                "type": "Polygon",
                "coordinates": [
                    [
                        [
                            1500000.0,
                            0.0
                        ],
                        [
                            1500000.0,
                            500000.0
                        ],
                        [
                            1000000.0,
                            500000.0
                        ],
                        [
                            1000000.0,
                            0.0
                        ],
                        [
                            1500000.0,
                            0.0
                        ]
                    ]
                ]
            }
        },
        {
            "type": "Feature",
            "properties": {
                "id": "8_4"
            },
            "geometry": {
                "type": "Polygon",
                "coordinates": [
                    [
                        [
                            1500000.0,
                            500000.0
                        ],
                        [
                            1500000.0,
                            1000000.0
                        ],
                        [
                            1000000.0,
                            1000000.0
                        ],
                        [
                            1000000.0,
                            500000.0
                        ],
                        [
                            1500000.0,
                            500000.0
                        ]
                    ]
                ]
            }
        },
        {
            "type": "Feature",
            "properties": {
                "id": "8_5"
            },
            "geometry": {
                "type": "Polygon",
                "coordinates": [
                    [
                        [
                            1500000.0,
                            1000000.0
                        ],
                        [
                            1500000.0,
                            1500000.0
                        ],
                        [
                            1000000.0,
                            1500000.0
                        ],
                        [
                            1000000.0,
                            1000000.0
                        ],
                        [
                            1500000.0,
                            1000000.0
                        ]
                    ]
                ]
            }
        },
        {
            "type": "Feature",
            "properties": {
                "id": "8_6"
            },
            "geometry": {
                "type": "Polygon",
                "coordinates": [
                    [
                        [
                            1500000.0,
                            1500000.0
                        ],
                        [
                            1500000.0,
                            2000000.0
                        ],
                        [
                            1000000.0,
                            2000000.0
                        ],
                        [
                            1000000.0,
                            1500000.0
                        ],
                        [
                            1500000.0,
                            1500000.0
                        ]
                    ]
                ]
            }
        },
        {
            "type": "Feature",
            "properties": {
                "id": "8_7"
            },
            "geometry": {
                "type": "Polygon",
                "coordinates": [
                    [
                        [
                            1500000.0,
                            2000000.0
                        ],
                        [
                            1500000.0,
                            2500000.0
                        ],
                        [
                            1000000.0,
                            2500000.0
                        ],
                        [
                            1000000.0,
                            2000000.0
                        ],
                        [
                            1500000.0,
                            2000000.0
                        ]
                    ]
                ]
            }
        },
        {
            "type": "Feature",
            "properties": {
                "id": "9_2"
            },
            "geometry": {
                "type": "Polygon",
                "coordinates": [
                    [
                        [
                            2000000.0,
                            -500000.0
                        ],
                        [
                            2000000.0,
                            0.0
                        ],
                        [
                            1500000.0,
                            0.0
                        ],
                        [
                            1500000.0,
                            -500000.0
                        ],
                        [
                            2000000.0,
                            -500000.0
                        ]
                    ]
                ]
            }
        },
        {
            "type": "Feature",
            "properties": {
                "id": "9_3"
            },
            "geometry": {
                "type": "Polygon",
                "coordinates": [
                    [
                        [
                            2000000.0,
                            0.0
                        ],
                        [
                            2000000.0,
                            500000.0
                        ],
                        [
                            1500000.0,
                            500000.0
                        ],
                        [
                            1500000.0,
                            0.0
                        ],
                        [
                            2000000.0,
                            0.0
                        ]
                    ]
                ]
            }
        },
        {
            "type": "Feature",
            "properties": {
                "id": "9_4"
            },
            "geometry": {
                "type": "Polygon",
                "coordinates": [
                    [
                        [
                            2000000.0,
                            500000.0
                        ],
                        [
                            2000000.0,
                            1000000.0
                        ],
                        [
                            1500000.0,
                            1000000.0
                        ],
                        [
                            1500000.0,
                            500000.0
                        ],
                        [
                            2000000.0,
                            500000.0
                        ]
                    ]
                ]
            }
        },
        {
            "type": "Feature",
            "properties": {
                "id": "9_5"
            },
            "geometry": {
                "type": "Polygon",
                "coordinates": [
                    [
                        [
                            2000000.0,
                            1000000.0
                        ],
                        [
                            2000000.0,
                            1500000.0
                        ],
                        [
                            1500000.0,
                            1500000.0
                        ],
                        [
                            1500000.0,
                            1000000.0
                        ],
                        [
                            2000000.0,
                            1000000.0
                        ]
                    ]
                ]
            }
        },
        {
            "type": "Feature",
            "properties": {
                "id": "9_6"
            },
            "geometry": {
                "type": "Polygon",
                "coordinates": [
                    [
                        [
                            2000000.0,
                            1500000.0
                        ],
                        [
                            2000000.0,
                            2000000.0
                        ],
                        [
                            1500000.0,
                            2000000.0
                        ],
                        [
                            1500000.0,
                            1500000.0
                        ],
                        [
                            2000000.0,
                            1500000.0
                        ]
                    ]
                ]
            }
        },
        {
            "type": "Feature",
            "properties": {
                "id": "10_2"
            },
            "geometry": {
                "type": "Polygon",
                "coordinates": [
                    [
                        [
                            2500000.0,
                            -500000.0
                        ],
                        [
                            2500000.0,
                            0.0
                        ],
                        [
                            2000000.0,
                            0.0
                        ],
                        [
                            2000000.0,
                            -500000.0
                        ],
                        [
                            2500000.0,
                            -500000.0
                        ]
                    ]
                ]
            }
        },
        {
            "type": "Feature",
            "properties": {
                "id": "10_3"
            },
            "geometry": {
                "type": "Polygon",
                "coordinates": [
                    [
                        [
                            2500000.0,
                            0.0
                        ],
                        [
                            2500000.0,
                            500000.0
                        ],
                        [
                            2000000.0,
                            500000.0
                        ],
                        [
                            2000000.0,
                            0.0
                        ],
                        [
                            2500000.0,
                            0.0
                        ]
                    ]
                ]
            }
        },
        {
            "type": "Feature",
            "properties": {
                "id": "10_4"
            },
            "geometry": {
                "type": "Polygon",
                "coordinates": [
                    [
                        [
                            2500000.0,
                            500000.0
                        ],
                        [
                            2500000.0,
                            1000000.0
                        ],
                        [
                            2000000.0,
                            1000000.0
                        ],
                        [
                            2000000.0,
                            500000.0
                        ],
                        [
                            2500000.0,
                            500000.0
                        ]
                    ]
                ]
            }
        },
        {
            "type": "Feature",
            "properties": {
                "id": "10_5"
            },
            "geometry": {
                "type": "Polygon",
                "coordinates": [
                    [
                        [
                            2500000.0,
                            1000000.0
                        ],
                        [
                            2500000.0,
                            1500000.0
                        ],
                        [
                            2000000.0,
                            1500000.0
                        ],
                        [
                            2000000.0,
                            1000000.0
                        ],
                        [
                            2500000.0,
                            1000000.0
                        ]
                    ]
                ]
            }
        },
        {
            "type": "Feature",
            "properties": {
                "id": "11_3"
            },
            "geometry": {
                "type": "Polygon",
                "coordinates": [
                    [
                        [
                            3000000.0,
                            0.0
                        ],
                        [
                            3000000.0,
                            500000.0
                        ],
                        [
                            2500000.0,
                            500000.0
                        ],
                        [
                            2500000.0,
                            0.0
                        ],
                        [
                            3000000.0,
                            0.0
                        ]
                    ]
                ]
            }
        },
        {
            "type": "Feature",
            "properties": {
                "id": "11_4"
            },
            "geometry": {
                "type": "Polygon",
                "coordinates": [
                    [
                        [
                            3050000.0,
                            500000.0
                        ],
                        [
                            3050000.0,
                            1000000.0
                        ],
                        [
                            2500000.0,
                            1000000.0
                        ],
                        [
                            2500000.0,
                            500000.0
                        ],
                        [
                            3050000.0,
                            500000.0
                        ]
                    ]
                ]
            }
        },
        {
            "type": "Feature",
            "properties": {
                "id": "11_5"
            },
            "geometry": {
                "type": "Polygon",
                "coordinates": [
                    [
                        [
                            3000000.0,
                            1000000.0
                        ],
                        [
                            3000000.0,
                            1500000.0
                        ],
                        [
                            2500000.0,
                            1500000.0
                        ],
                        [
                            2500000.0,
                            1000000.0
                        ],
                        [
                            3000000.0,
                            1000000.0
                        ]
                    ]
                ]
            }
        }
    ]
}